[{"OBJECT_NAME":"STARLINK-4799","OBJECT_ID":"2022-114AU","EPOCH":"2026-03-09T21:52:01.324416","MEAN_MOTION":15.08842971,"ECCENTRICITY":0.00014403,"INCLINATION":53.2178,"RA_OF_ASC_NODE":283.2431,"ARG_OF_PERICENTER":90.016,"MEAN_ANOMALY":270.0997,"EPHEMERIS_TYPE":0,"CLASSIFICATION_TYPE":"U","NORAD_CAT_ID":53860,"ELEMENT_SET_NO":999,"REV_AT_EPOCH":19290,"BSTAR":-3.5512019e-5,"MEAN_MOTION_DOT":-8.53e-6,"MEAN_MOTION_DDOT":0},{"OBJECT_NAME":"ELECTRON KICK STAGE R\/B","OBJECT_ID":"2024-114G","EPOCH":"2026-03-09T16:42:35.427168","MEAN_MOTION":15.12630878,"ECCENTRICITY":0.00674954,"INCLINATION":97.9507,"RA_OF_ASC_NODE":118.387,"ARG_OF_PERICENTER":79.3604,"MEAN_ANOMALY":281.5218,"EPHEMERIS_TYPE":0,"CLASSIFICATION_TYPE":"U","NORAD_CAT_ID":60085,"ELEMENT_SET_NO":999,"REV_AT_EPOCH":9434,"BSTAR":0.00053349816,"MEAN_MOTION_DOT":9.787e-5,"MEAN_MOTION_DDOT":0}]
